{"type": "FeatureCollection", "features": [ {"type": "Feature", "properties": {"norad_id": 67110, "name": "STARLINK-35781", "group": "last-30-days", "lat": 16.881990055952098, "lon": 45.69222645359058, "alt_km": 309.05838756133926, "timestamp": "2025-12-24T11:32:58.722535+00:00", "meta": {"OBJECT_NAME": "STARLINK-35781", "OBJECT_ID": "2025-299J", "EPOCH": "2025-12-24T04:00:01.998720", "MEAN_MOTION": 15.88068548, "ECCENTRICITY": 0.0001561, "INCLINATION": 42.9977, "RA_OF_ASC_NODE": 246.6449, "ARG_OF_PERICENTER": 272.6949, "MEAN_ANOMALY": 242.229, "EPHEMERIS_TYPE": 0, "CLASSIFICATION_TYPE": "U", "NORAD_CAT_ID": 67110, "ELEMENT_SET_NO": 999, "REV_AT_EPOCH": 259, "BSTAR": -0.0070084, "MEAN_MOTION_DOT": -0.01716969, "MEAN_MOTION_DDOT": 0}, "tle": {"line1": "1 67110U 25299J   25358.16668980 -.01716969  00000+0 -70084-2 0  9990", "line2": "2 67110  42.9977 246.6449 0001561 272.6949 242.2290 15.88068548  2592"}}, "geometry": {"type": "Point", "coordinates": [45.69222645359058, 16.881990055952098]}}, {"type": "Feature", "properties": {"norad_id": 67111, "name": "STARLINK-35875", "group": "last-30-days", "lat": 17.982377656317894, "lon": 44.318782513146324, "alt_km": 309.0269836618072, "timestamp": "2025-12-24T11:32:58.722561+00:00", "meta": {"OBJECT_NAME": "STARLINK-35875", "OBJECT_ID": "2025-299K", "EPOCH": "2025-12-24T04:00:01.998720", "MEAN_MOTION": 15.88058335, "ECCENTRICITY": 0.0001619, "INCLINATION": 42.9978, "RA_OF_ASC_NODE": 246.6495, "ARG_OF_PERICENTER": 275.4171, "MEAN_ANOMALY": 237.8053, "EPHEMERIS_TYPE": 0, "CLASSIFICATION_TYPE": "U", "NORAD_CAT_ID": 67111, "ELEMENT_SET_NO": 999, "REV_AT_EPOCH": 253, "BSTAR": -0.0070171, "MEAN_MOTION_DOT": -0.01718102, "MEAN_MOTION_DDOT": 0}, "tle": {"line1": "1 67111U 25299K   25358.16668980 -.01718102  00000+0 -70171-2 0  9999", "line2": "2 67111  42.9978 246.6495 0001619 275.4171 237.8053 15.88058335  2531"}}, "geometry": {"type": "Point", "coordinates": [44.318782513146324, 17.982377656317894]}}, {"type": "Feature", "properties": {"norad_id": 67112, "name": "STARLINK-35906", "group": "last-30-days", "lat": 15.947108741458438, "lon": 46.838322072854766, "alt_km": 309.2092791016057, "timestamp": "2025-12-24T11:32:58.722574+00:00", "meta": {"OBJECT_NAME": "STARLINK-35906", "OBJECT_ID": "2025-299L", "EPOCH": "2025-12-24T04:00:01.998720", "MEAN_MOTION": 15.88083614, "ECCENTRICITY": 0.0001609, "INCLINATION": 42.9978, "RA_OF_ASC_NODE": 246.6415, "ARG_OF_PERICENTER": 274.5835, "MEAN_ANOMALY": 241.7717, "EPHEMERIS_TYPE": 0, "CLASSIFICATION_TYPE": "U", "NORAD_CAT_ID": 67112, "ELEMENT_SET_NO": 999, "REV_AT_EPOCH": 253, "BSTAR": -0.0070384, "MEAN_MOTION_DOT": -0.01724485, "MEAN_MOTION_DDOT": 0}, "tle": {"line1": "1 67112U 25299L   25358.16668980 -.01724485  00000+0 -70384-2 0  9997", "line2": "2 67112  42.9978 246.6415 0001609 274.5835 241.7717 15.88083614  2539"}}, "geometry": {"type": "Point", "coordinates": [46.838322072854766, 15.947108741458438]}}, {"type": "Feature", "properties": {"norad_id": 67113, "name": "STARLINK-35789", "group": "last-30-days", "lat": 14.940773606340208, "lon": 48.05145341612824, "alt_km": 309.1755977187777, "timestamp": "2025-12-24T11:32:58.722584+00:00", "meta": {"OBJECT_NAME": "STARLINK-35789", "OBJECT_ID": "2025-299M", "EPOCH": "2025-12-24T04:00:01.998720", "MEAN_MOTION": 15.88095443, "ECCENTRICITY": 0.0001525, "INCLINATION": 42.9976, "RA_OF_ASC_NODE": 246.6375, "ARG_OF_PERICENTER": 270.0321, "MEAN_ANOMALY": 247.8545, "EPHEMERIS_TYPE": 0, "CLASSIFICATION_TYPE": "U", "NORAD_CAT_ID": 67113, "ELEMENT_SET_NO": 999, "REV_AT_EPOCH": 253, "BSTAR": -0.0070337, "MEAN_MOTION_DOT": -0.01724287, "MEAN_MOTION_DDOT": 0}, "tle": {"line1": "1 67113U 25299M   25358.16668980 -.01724287  00000+0 -70337-2 0  9996", "line2": "2 67113  42.9976 246.6375 0001525 270.0321 247.8545 15.88095443  2530"}}, "geometry": {"type": "Point", "coordinates": [48.05145341612824, 14.940773606340208]}}, {"type": "Feature", "properties": {"norad_id": 67114, "name": "STARLINK-36180", "group": "last-30-days", "lat": 13.75017812403645, "lon": 49.46292378076507, "alt_km": 309.39112327763996, "timestamp": "2025-12-24T11:32:58.722594+00:00", "meta": {"OBJECT_NAME": "STARLINK-36180", "OBJECT_ID": "2025-299N", "EPOCH": "2025-12-24T04:00:01.998720", "MEAN_MOTION": 15.88094162, "ECCENTRICITY": 0.0001541, "INCLINATION": 42.9976, "RA_OF_ASC_NODE": 246.6331, "ARG_OF_PERICENTER": 273.2793, "MEAN_ANOMALY": 246.4213, "EPHEMERIS_TYPE": 0, "CLASSIFICATION_TYPE": "U", "NORAD_CAT_ID": 67114, "ELEMENT_SET_NO": 999, "REV_AT_EPOCH": 264, "BSTAR": -0.0070084, "MEAN_MOTION_DOT": -0.01718858, "MEAN_MOTION_DDOT": 0}, "tle": {"line1": "1 67114U 25299N   25358.16668980 -.01718858  00000+0 -70084-2 0  9993", "line2": "2 67114  42.9976 246.6331 0001541 273.2793 246.4213 15.88094162  2645"}}, "geometry": {"type": "Point", "coordinates": [49.46292378076507, 13.75017812403645]}}, {"type": "Feature", "properties": {"norad_id": 67115, "name": "STARLINK-35892", "group": "last-30-days", "lat": 12.715516236673848, "lon": 50.670026677965566, "alt_km": 309.44192646830834, "timestamp": "2025-12-24T11:32:58.722604+00:00", "meta": {"OBJECT_NAME": "STARLINK-35892", "OBJECT_ID": "2025-299P", "EPOCH": "2025-12-24T04:00:01.998720", "MEAN_MOTION": 15.88108766, "ECCENTRICITY": 0.0001548, "INCLINATION": 42.9978, "RA_OF_ASC_NODE": 246.629, "ARG_OF_PERICENTER": 271.0671, "MEAN_ANOMALY": 250.1878, "EPHEMERIS_TYPE": 0, "CLASSIFICATION_TYPE": "U", "NORAD_CAT_ID": 67115, "ELEMENT_SET_NO": 999, "REV_AT_EPOCH": 253, "BSTAR": -0.0070285, "MEAN_MOTION_DOT": -0.01724231, "MEAN_MOTION_DDOT": 0}, "tle": {"line1": "1 67115U 25299P   25358.16668980 -.01724231  00000+0 -70285-2 0  9999", "line2": "2 67115  42.9978 246.6290 0001548 271.0671 250.1878 15.88108766  2533"}}, "geometry": {"type": "Point", "coordinates": [50.670026677965566, 12.715516236673848]}}, {"type": "Feature", "properties": {"norad_id": 67116, "name": "STARLINK-35738", "group": "last-30-days", "lat": 11.474613329657917, "lon": 52.0968027924958, "alt_km": 309.59249859319516, "timestamp": "2025-12-24T11:32:58.722614+00:00", "meta": {"OBJECT_NAME": "STARLINK-35738", "OBJECT_ID": "2025-299Q", "EPOCH": "2025-12-24T04:00:01.998720", "MEAN_MOTION": 15.88109241, "ECCENTRICITY": 0.0001508, "INCLINATION": 42.9977, "RA_OF_ASC_NODE": 246.6244, "ARG_OF_PERICENTER": 272.1603, "MEAN_ANOMALY": 250.9605, "EPHEMERIS_TYPE": 0, "CLASSIFICATION_TYPE": "U", "NORAD_CAT_ID": 67116, "ELEMENT_SET_NO": 999, "REV_AT_EPOCH": 253, "BSTAR": -0.0070015, "MEAN_MOTION_DOT": -0.01718501, "MEAN_MOTION_DDOT": 0}, "tle": {"line1": "1 67116U 25299Q   25358.16668980 -.01718501  00000+0 -70015-2 0  9994", "line2": "2 67116  42.9977 246.6244 0001508 272.1603 250.9605 15.88109241  2530"}}, "geometry": {"type": "Point", "coordinates": [52.0968027924958, 11.474613329657917]}}, {"type": "Feature", "properties": {"norad_id": 67117, "name": "STARLINK-35674", "group": "last-30-days", "lat": 10.35113971601591, "lon": 53.371006878179294, "alt_km": 309.67270213210486, "timestamp": "2025-12-24T11:32:58.722624+00:00", "meta": {"OBJECT_NAME": "STARLINK-35674", "OBJECT_ID": "2025-299R", "EPOCH": "2025-12-24T04:00:01.998720", "MEAN_MOTION": 15.88112749, "ECCENTRICITY": 0.0001535, "INCLINATION": 42.9979, "RA_OF_ASC_NODE": 246.6202, "ARG_OF_PERICENTER": 270.3877, "MEAN_ANOMALY": 254.4116, "EPHEMERIS_TYPE": 0, "CLASSIFICATION_TYPE": "U", "NORAD_CAT_ID": 67117, "ELEMENT_SET_NO": 999, "REV_AT_EPOCH": 243, "BSTAR": -0.0069795, "MEAN_MOTION_DOT": -0.01714112, "MEAN_MOTION_DDOT": 0}, "tle": {"line1": "1 67117U 25299R   25358.16668980 -.01714112  00000+0 -69795-2 0  9992", "line2": "2 67117  42.9979 246.6202 0001535 270.3877 254.4116 15.88112749  2432"}}, "geometry": {"type": "Point", "coordinates": [53.371006878179294, 10.35113971601591]}}, {"type": "Feature", "properties": {"norad_id": 67118, "name": "STARLINK-35701", "group": "last-30-days", "lat": 9.190462590274754, "lon": 54.67184299600992, "alt_km": 309.89156835642916, "timestamp": "2025-12-24T11:32:58.722634+00:00", "meta": {"OBJECT_NAME": "STARLINK-35701", "OBJECT_ID": "2025-299S", "EPOCH": "2025-12-24T04:00:01.998720", "MEAN_MOTION": 15.88120761, "ECCENTRICITY": 0.0001552, "INCLINATION": 42.9978, "RA_OF_ASC_NODE": 246.6159, "ARG_OF_PERICENTER": 274.3617, "MEAN_ANOMALY": 252.1619, "EPHEMERIS_TYPE": 0, "CLASSIFICATION_TYPE": "U", "NORAD_CAT_ID": 67118, "ELEMENT_SET_NO": 999, "REV_AT_EPOCH": 259, "BSTAR": -0.0069963, "MEAN_MOTION_DOT": -0.01718295, "MEAN_MOTION_DDOT": 0}, "tle": {"line1": "1 67118U 25299S   25358.16668980 -.01718295  00000+0 -69963-2 0  9996", "line2": "2 67118  42.9978 246.6159 0001552 274.3617 252.1619 15.88120761  2591"}}, "geometry": {"type": "Point", "coordinates": [54.67184299600992, 9.190462590274754]}}, {"type": "Feature", "properties": {"norad_id": 67119, "name": "STARLINK-36179", "group": "last-30-days", "lat": 7.360266822688359, "lon": 56.69550415789848, "alt_km": 310.01242045345134, "timestamp": "2025-12-24T11:32:58.722643+00:00", "meta": {"OBJECT_NAME": "STARLINK-36179", "OBJECT_ID": "2025-299T", "EPOCH": "2025-12-24T04:00:01.998720", "MEAN_MOTION": 15.88143379, "ECCENTRICITY": 0.0001521, "INCLINATION": 42.9976, "RA_OF_ASC_NODE": 246.6087, "ARG_OF_PERICENTER": 274.5702, "MEAN_ANOMALY": 254.6397, "EPHEMERIS_TYPE": 0, "CLASSIFICATION_TYPE": "U", "NORAD_CAT_ID": 67119, "ELEMENT_SET_NO": 999, "REV_AT_EPOCH": 264, "BSTAR": -0.0069375, "MEAN_MOTION_DOT": -0.01707486, "MEAN_MOTION_DDOT": 0}, "tle": {"line1": "1 67119U 25299T   25358.16668980 -.01707486  00000+0 -69375-2 0  9994", "line2": "2 67119  42.9976 246.6087 0001521 274.5702 254.6397 15.88143379  2649"}}, "geometry": {"type": "Point", "coordinates": [56.69550415789848, 7.360266822688359]}}]}